{
  "type": "FeatureCollection",
  "features": [
    {
      "type": "Feature",
      "properties": {
        "norad_id": 38857,
        "name": "GSAT0103 (GALILEO-FM3)",
        "group": "gnss",
        "lat": -14.026193645619953,
        "lon": -63.84958223761742,
        "alt_km": 23221.690577432306,
        "timestamp": "2025-12-24T09:46:31.246230+00:00",
        "meta_object_name": "GSAT0103 (GALILEO-FM3)",
        "meta_object_id": "2012-055A",
        "meta_epoch": "2025-12-22T21:54:43.252704",
        "meta_mean_motion": 1.70473351,
        "meta_eccentricity": 0.0002995,
        "meta_inclination": 55.698,
        "meta_ra_of_asc_node": 106.3873,
        "meta_arg_of_pericenter": 269.858,
        "meta_mean_anomaly": 90.0891,
        "meta_ephemeris_type": 0,
        "meta_classification_type": "U",
        "meta_norad_cat_id": 38857,
        "meta_element_set_no": 999,
        "meta_rev_at_epoch": 8200,
        "meta_bstar": 0,
        "meta_mean_motion_dot": 1e-07,
        "meta_mean_motion_ddot": 0,
        "tle_line1": "1 38857U 12055A   25356.91300061  .00000010  00000+0  00000+0 0  9994",
        "tle_line2": "2 38857  55.6980 106.3873 0002995 269.8580  90.0891  1.70473351 82005"
      },
      "geometry": {
        "type": "Point",
        "coordinates": [
          -63.84958223761742,
          -14.026193645619953
        ]
      }
    },
    {
      "type": "Feature",
      "properties": {
        "norad_id": 38953,
        "name": "BEIDOU-2 G6 (C02)",
        "group": "gnss",
        "lat": -3.711648036260478,
        "lon": -36.40321004048604,
        "alt_km": 35762.44415048819,
        "timestamp": "2025-12-24T09:46:31.246244+00:00",
        "meta_object_name": "BEIDOU-2 G6 (C02)",
        "meta_object_id": "2012-059A",
        "meta_epoch": "2025-12-23T17:40:08.745312",
        "meta_mean_motion": 1.00268216,
        "meta_eccentricity": 0.00083291,
        "meta_inclination": 3.9754,
        "meta_ra_of_asc_node": 75.3987,
        "meta_arg_of_pericenter": 292.2173,
        "meta_mean_anomaly": 73.8502,
        "meta_ephemeris_type": 0,
        "meta_classification_type": "U",
        "meta_norad_cat_id": 38953,
        "meta_element_set_no": 999,
        "meta_rev_at_epoch": 4815,
        "meta_bstar": 0,
        "meta_mean_motion_dot": -1.54e-06,
        "meta_mean_motion_ddot": 0,
        "tle_line1": "1 38953U 12059A   25357.73621233 -.00000154  00000+0  00000+0 0  9993",
        "tle_line2": "2 38953   3.9754  75.3987 0008329 292.2173  73.8502  1.00268216 48154"
      },
      "geometry": {
        "type": "Point",
        "coordinates": [
          -36.40321004048604,
          -3.711648036260478
        ]
      }
    },
    {
      "type": "Feature",
      "properties": {
        "norad_id": 38977,
        "name": "LUCH 5B (SDCM/PRN 125)",
        "group": "gnss",
        "lat": 1.4215668463723954,
        "lon": -136.42014341937406,
        "alt_km": 35760.49266327598,
        "timestamp": "2025-12-24T09:46:31.246256+00:00",
        "meta_object_name": "LUCH 5B (SDCM/PRN 125)",
        "meta_object_id": "2012-061A",
        "meta_epoch": "2025-12-23T23:19:30.865728",
        "meta_mean_motion": 1.00271916,
        "meta_eccentricity": 0.0006602,
        "meta_inclination": 10.1038,
        "meta_ra_of_asc_node": 51.5975,
        "meta_arg_of_pericenter": 196.0445,
        "meta_mean_anomaly": 178.6636,
        "meta_ephemeris_type": 0,
        "meta_classification_type": "U",
        "meta_norad_cat_id": 38977,
        "meta_element_set_no": 999,
        "meta_rev_at_epoch": 4785,
        "meta_bstar": 0,
        "meta_mean_motion_dot": -1.21e-06,
        "meta_mean_motion_ddot": 0,
        "tle_line1": "1 38977U 12061A   25357.97188502 -.00000121  00000+0  00000+0 0  9999",
        "tle_line2": "2 38977  10.1038  51.5975 0006602 196.0445 178.6636  1.00271916 47852"
      },
      "geometry": {
        "type": "Point",
        "coordinates": [
          -136.42014341937406,
          1.4215668463723954
        ]
      }
    },
    {
      "type": "Feature",
      "properties": {
        "norad_id": 39155,
        "name": "COSMOS 2485 (747)",
        "group": "gnss",
        "lat": 41.682704792013475,
        "lon": 103.61825521987866,
        "alt_km": 19188.73560004754,
        "timestamp": "2025-12-24T09:46:31.246267+00:00",
        "meta_object_name": "COSMOS 2485 (747)",
        "meta_object_id": "2013-019A",
        "meta_epoch": "2025-12-22T22:30:40.320288",
        "meta_mean_motion": 2.13103234,
        "meta_eccentricity": 0.00250055,
        "meta_inclination": 65.3186,
        "meta_ra_of_asc_node": 79.5244,
        "meta_arg_of_pericenter": 230.4541,
        "meta_mean_anomaly": 129.3696,
        "meta_ephemeris_type": 0,
        "meta_classification_type": "U",
        "meta_norad_cat_id": 39155,
        "meta_element_set_no": 999,
        "meta_rev_at_epoch": 9852,
        "meta_bstar": 0,
        "meta_mean_motion_dot": 0,
        "meta_mean_motion_ddot": 0,
        "tle_line1": "1 39155U 13019A   25356.93796667  .00000000  00000+0  00000+0 0  9999",
        "tle_line2": "2 39155  65.3186  79.5244 0025005 230.4541 129.3696  2.13103234 98525"
      },
      "geometry": {
        "type": "Point",
        "coordinates": [
          103.61825521987866,
          41.682704792013475
        ]
      }
    },
    {
      "type": "Feature",
      "properties": {
        "norad_id": 39166,
        "name": "GPS BIIF-4  (PRN 27)",
        "group": "gnss",
        "lat": 12.181426193641343,
        "lon": 87.28553930761683,
        "alt_km": 20339.427687935688,
        "timestamp": "2025-12-24T09:46:31.246278+00:00",
        "meta_object_name": "GPS BIIF-4  (PRN 27)",
        "meta_object_id": "2013-023A",
        "meta_epoch": "2025-12-23T04:26:51.190080",
        "meta_mean_motion": 2.00564617,
        "meta_eccentricity": 0.0138544,
        "meta_inclination": 54.643,
        "meta_ra_of_asc_node": 276.1436,
        "meta_arg_of_pericenter": 48.7441,
        "meta_mean_anomaly": 312.487,
        "meta_ephemeris_type": 0,
        "meta_classification_type": "U",
        "meta_norad_cat_id": 39166,
        "meta_element_set_no": 999,
        "meta_rev_at_epoch": 9235,
        "meta_bstar": 0,
        "meta_mean_motion_dot": -1.4e-07,
        "meta_mean_motion_ddot": 0,
        "tle_line1": "1 39166U 13023A   25357.18531470 -.00000014  00000+0  00000+0 0  9999",
        "tle_line2": "2 39166  54.6430 276.1436 0138544  48.7441 312.4870  2.00564617 92356"
      },
      "geometry": {
        "type": "Point",
        "coordinates": [
          87.28553930761683,
          12.181426193641343
        ]
      }
    },
    {
      "type": "Feature",
      "properties": {
        "norad_id": 39199,
        "name": "IRNSS-1A",
        "group": "gnss",
        "lat": -25.593107379108755,
        "lon": -71.14065260418033,
        "alt_km": 35688.36625080834,
        "timestamp": "2025-12-24T09:46:31.246304+00:00",
        "meta_object_name": "IRNSS-1A",
        "meta_object_id": "2013-034A",
        "meta_epoch": "2025-12-23T18:31:50.766240",
        "meta_mean_motion": 1.00273261,
        "meta_eccentricity": 0.00244469,
        "meta_inclination": 35.3346,
        "meta_ra_of_asc_node": 66.3922,
        "meta_arg_of_pericenter": 214.961,
        "meta_mean_anomaly": 143.9705,
        "meta_ephemeris_type": 0,
        "meta_classification_type": "U",
        "meta_norad_cat_id": 39199,
        "meta_element_set_no": 999,
        "meta_rev_at_epoch": 4560,
        "meta_bstar": 0,
        "meta_mean_motion_dot": 7.8e-07,
        "meta_mean_motion_ddot": 0,
        "tle_line1": "1 39199U 13034A   25357.77211535  .00000078  00000+0  00000+0 0  9998",
        "tle_line2": "2 39199  35.3346  66.3922 0024446 214.9610 143.9705  1.00273261 45604"
      },
      "geometry": {
        "type": "Point",
        "coordinates": [
          -71.14065260418033,
          -25.593107379108755
        ]
      }
    },
    {
      "type": "Feature",
      "properties": {
        "norad_id": 39533,
        "name": "GPS BIIF-5  (PRN 30)",
        "group": "gnss",
        "lat": 11.939006493091567,
        "lon": -32.497179402038526,
        "alt_km": 20078.877139793272,
        "timestamp": "2025-12-24T09:46:31.246318+00:00",
        "meta_object_name": "GPS BIIF-5  (PRN 30)",
        "meta_object_id": "2014-008A",
        "meta_epoch": "2025-12-20T16:28:24.690432",
        "meta_mean_motion": 2.00548724,
        "meta_eccentricity": 0.00795742,
        "meta_inclination": 53.6246,
        "meta_ra_of_asc_node": 156.6308,
        "meta_arg_of_pericenter": 226.1122,
        "meta_mean_anomaly": 133.2164,
        "meta_ephemeris_type": 0,
        "meta_classification_type": "U",
        "meta_norad_cat_id": 39533,
        "meta_element_set_no": 999,
        "meta_rev_at_epoch": 8610,
        "meta_bstar": 0,
        "meta_mean_motion_dot": 6.5e-07,
        "meta_mean_motion_ddot": 0,
        "tle_line1": "1 39533U 14008A   25354.68639688  .00000065  00000+0  00000+0 0  9998",
        "tle_line2": "2 39533  53.6246 156.6308 0079574 226.1122 133.2164  2.00548724 86105"
      },
      "geometry": {
        "type": "Point",
        "coordinates": [
          -32.497179402038526,
          11.939006493091567
        ]
      }
    }
  ]
}